{"fetched_at":"2026-07-14T06:35:04.008Z","source":"https://celestrak.org/NORAD/elements/gp.php?NAME=SENTINEL&FORMAT=JSON","constellation":"sentinel-3","records":[{"OBJECT_NAME":"SENTINEL-3A","OBJECT_ID":"2016-011A","EPOCH":"2026-07-13T20:46:54.751008","CLASSIFICATION_TYPE":"U","MEAN_MOTION":14.26739541,"ECCENTRICITY":0.0001367,"INCLINATION":98.6238,"RA_OF_ASC_NODE":261.8648,"ARG_OF_PERICENTER":90.5342,"MEAN_ANOMALY":269.5995,"EPHEMERIS_TYPE":0,"NORAD_CAT_ID":41335,"ELEMENT_SET_NO":999,"REV_AT_EPOCH":54186,"BSTAR":0.000037402,"MEAN_MOTION_DOT":4.7e-7,"MEAN_MOTION_DDOT":0},{"OBJECT_NAME":"SENTINEL-3B","OBJECT_ID":"2018-039A","EPOCH":"2026-07-13T18:27:14.637024","CLASSIFICATION_TYPE":"U","MEAN_MOTION":14.26735895,"ECCENTRICITY":0.0001117,"INCLINATION":98.6237,"RA_OF_ASC_NODE":261.9181,"ARG_OF_PERICENTER":119.0737,"MEAN_ANOMALY":241.0555,"EPHEMERIS_TYPE":0,"NORAD_CAT_ID":43437,"ELEMENT_SET_NO":999,"REV_AT_EPOCH":42791,"BSTAR":0.000009371,"MEAN_MOTION_DOT":-2.1e-7,"MEAN_MOTION_DDOT":0}]}
