SENTINEL-3A             
1 41335U 16011A   26194.86591147  .00000047  00000+0  37402-4 0  9998
2 41335  98.6238 261.8648 0001367  90.5342 269.5995 14.26739541541860
SENTINEL-3B             
1 43437U 18039A   26194.76891941 -.00000021  00000+0  93710-5 0  9997
2 43437  98.6237 261.9181 0001117 119.0737 241.0555 14.26735895427919
